{
  "norad_id": 48117,
  "name": "STARLINK-2455",
  "history": [
    {
      "epoch": "2026-05-06T14:08:40.578720Z",
      "apogee_km": 471.39422527570605,
      "perigee_km": 469.9340608720022,
      "latitude_deg": -2.410354462572645e-05,
      "longitude_deg": 166.6592835142541,
      "height_km": 471.6100353277033,
      "semi_major_axis_km": 6848.801143073853,
      "eccentricity": 0.0001066,
      "inclination_deg": 53.16,
      "raan_deg": 243.2762,
      "arg_perigee_deg": 93.6863,
      "mean_anomaly_deg": 266.426,
      "mean_motion_rev_day": 15.31725446
    },
    {
      "epoch": "2026-05-07T13:38:05.740800Z",
      "apogee_km": 471.5911234076866,
      "perigee_km": 469.9145151799239,
      "latitude_deg": -4.722145990975812e-05,
      "longitude_deg": 168.78340748156361,
      "height_km": 471.89612406582637,
      "semi_major_axis_km": 6848.889819293805,
      "eccentricity": 0.0001224,
      "inclination_deg": 53.1594,
      "raan_deg": 238.7199,
      "arg_perigee_deg": 106.9626,
      "mean_anomaly_deg": 253.1509,
      "mean_motion_rev_day": 15.31695698
    },
    {
      "epoch": "2026-05-08T13:07:27.942816Z",
      "apogee_km": 472.1108219517773,
      "perigee_km": 469.21377984749597,
      "latitude_deg": -1.6325442652886155e-05,
      "longitude_deg": 170.91943955751978,
      "height_km": 472.0883785572218,
      "semi_major_axis_km": 6848.799300899636,
      "eccentricity": 0.0002115,
      "inclination_deg": 53.1607,
      "raan_deg": 234.1631,
      "arg_perigee_deg": 111.3915,
      "mean_anomaly_deg": 248.7312,
      "mean_motion_rev_day": 15.31726064
    },
    {
      "epoch": "2026-05-09T14:10:52.243680Z",
      "apogee_km": 471.32401612534613,
      "perigee_km": 470.23229904922664,
      "latitude_deg": 4.135451135294394e-05,
      "longitude_deg": 149.18158232401208,
      "height_km": 471.76690233217937,
      "semi_major_axis_km": 6848.915157587287,
      "eccentricity": 7.97e-05,
      "inclination_deg": 53.16,
      "raan_deg": 229.3055,
      "arg_perigee_deg": 99.4316,
      "mean_anomaly_deg": 260.6776,
      "mean_motion_rev_day": 15.31687198
    },
    {
      "epoch": "2026-05-10T13:40:17.468832Z",
      "apogee_km": 471.3386710585128,
      "perigee_km": 470.11135498577914,
      "latitude_deg": 7.98980915781483e-08,
      "longitude_deg": 151.30223139379882,
      "height_km": 471.6448179248313,
      "semi_major_axis_km": 6848.862013022146,
      "eccentricity": 8.96e-05,
      "inclination_deg": 53.1601,
      "raan_deg": 224.746,
      "arg_perigee_deg": 91.9264,
      "mean_anomaly_deg": 268.184,
      "mean_motion_rev_day": 15.31705026
    }
  ]
}